SL-14 R/B               
1 21423U 91042B   26041.54461227  .00000417  00000+0  49750-4 0  9992
2 21423  82.4897 245.6429 0016439 335.1770  24.8651 14.81802962849056
ERS-1                   
1 21574U 91050A   26041.51834961  .00000373  00000+0  13425-3 0  9994
2 21574  98.7895  59.0696 0030911 283.3531  76.4210 14.39426890811827
ARIANE 40 R/B           
1 21610U 91050F   26041.56455951  .00000327  00000+0  11056-3 0  9995
2 21610  98.2072  94.8114 0003879 140.9696 219.1775 14.42873293815086
INTERCOSMOS 25          
1 21819U 91086A   26041.32975000  .00001496  00000+0  29030-3 0  9990
2 21819  82.6086 326.5412 1486812 175.8736 185.6393 12.11923096493378
SL-8 R/B                
1 21876U 92008B   26041.24725772  .00000032  00000+0  17518-4 0  9992
2 21876  82.9261 288.1938 0033900 209.6045 273.3160 13.75969680705642
SL-8 R/B                
1 21938U 92020B   26041.48954700  .00000131  00000+0  12020-3 0  9998
2 21938  82.9333 173.9505 0029196  16.3798  53.8167 13.75545599697391
USA 81                  
1 21949U 92023A   26041.34433794  .00000231  00000+0  78061-4 0  9992
2 21949  85.0120 147.2089 0002660 102.1429 258.0062 14.32357940 90872
COSMOS 2219             
1 22219U 92076A   26041.49890809 -.00000039  00000+0  40770-5 0  9995
2 22219  71.0581  74.9130 0020247 244.2668 115.6365 14.14076498714532
SL-16 R/B               
1 22220U 92076B   26041.58636808 -.00000045  00000+0  13069-5 0  9992
2 22220  70.9978 245.4668 0011417 145.0009 276.8166 14.16855982717996
COSMOS 2221             
1 22236U 92080A   26041.21645453  .00002266  00000+0  19909-3 0  9993
2 22236  82.5054 305.3929 0012872 287.9945  71.9873 14.96091847776684
SL-16 R/B               
1 22285U 92093B   26041.53147301  .00000023  00000+0  35976-4 0  9997
2 22285  71.0200  61.2795 0005191 322.4617  37.6143 14.15441096709311
COSMOS 2228             
1 22286U 92094A   26041.58497347  .00001695  00000+0  14429-3 0  9997
2 22286  82.5156 263.2659 0018961  36.9640 323.2884 14.97064293772006
