CCSDS_OMM_VERS = 2.0
CREATION_DATE  = 
ORIGINATOR     = 

OBJECT_NAME    = SL-14 R/B
OBJECT_ID      = 1991-042B
CENTER_NAME    = EARTH
REF_FRAME      = TEME
TIME_SYSTEM    = UTC
MEAN_ELEMENT_THEORY = SGP/SGP4

EPOCH          = 2026-02-10T13:04:14.500128
MEAN_MOTION    = 14.81802962
ECCENTRICITY   = .00164393
INCLINATION    = 82.4897
RA_OF_ASC_NODE = 245.6429
ARG_OF_PERICENTER = 335.1770
MEAN_ANOMALY   = 24.8651

EPHEMERIS_TYPE = 0
CLASSIFICATION_TYPE = U
NORAD_CAT_ID   = 21423
ELEMENT_SET_NO = 999
REV_AT_EPOCH   = 84905
BSTAR          = .49749887E-4
MEAN_MOTION_DOT = .417E-5
MEAN_MOTION_DDOT = 0

CCSDS_OMM_VERS = 2.0
CREATION_DATE  = 
ORIGINATOR     = 

OBJECT_NAME    = ERS-1
OBJECT_ID      = 1991-050A
CENTER_NAME    = EARTH
REF_FRAME      = TEME
TIME_SYSTEM    = UTC
MEAN_ELEMENT_THEORY = SGP/SGP4

EPOCH          = 2026-02-10T12:26:25.406304
MEAN_MOTION    = 14.39426890
ECCENTRICITY   = .00309115
INCLINATION    = 98.7895
RA_OF_ASC_NODE = 59.0696
ARG_OF_PERICENTER = 283.3531
MEAN_ANOMALY   = 76.4210

EPHEMERIS_TYPE = 0
CLASSIFICATION_TYPE = U
NORAD_CAT_ID   = 21574
ELEMENT_SET_NO = 999
REV_AT_EPOCH   = 81182
BSTAR          = .13425169E-3
MEAN_MOTION_DOT = .373E-5
MEAN_MOTION_DDOT = 0

CCSDS_OMM_VERS = 2.0
CREATION_DATE  = 
ORIGINATOR     = 

OBJECT_NAME    = ARIANE 40 R/B
OBJECT_ID      = 1991-050F
CENTER_NAME    = EARTH
REF_FRAME      = TEME
TIME_SYSTEM    = UTC
MEAN_ELEMENT_THEORY = SGP/SGP4

EPOCH          = 2026-02-10T13:32:57.941664
MEAN_MOTION    = 14.42873293
ECCENTRICITY   = .00038793
INCLINATION    = 98.2072
RA_OF_ASC_NODE = 94.8114
ARG_OF_PERICENTER = 140.9696
MEAN_ANOMALY   = 219.1775

EPHEMERIS_TYPE = 0
CLASSIFICATION_TYPE = U
NORAD_CAT_ID   = 21610
ELEMENT_SET_NO = 999
REV_AT_EPOCH   = 81508
BSTAR          = .11056447E-3
MEAN_MOTION_DOT = .327E-5
MEAN_MOTION_DDOT = 0

CCSDS_OMM_VERS = 2.0
CREATION_DATE  = 
ORIGINATOR     = 

OBJECT_NAME    = INTERCOSMOS 25
OBJECT_ID      = 1991-086A
CENTER_NAME    = EARTH
REF_FRAME      = TEME
TIME_SYSTEM    = UTC
MEAN_ELEMENT_THEORY = SGP/SGP4

EPOCH          = 2026-02-10T07:54:50.400000
MEAN_MOTION    = 12.11923096
ECCENTRICITY   = .14868129
INCLINATION    = 82.6086
RA_OF_ASC_NODE = 326.5412
ARG_OF_PERICENTER = 175.8736
MEAN_ANOMALY   = 185.6393

EPHEMERIS_TYPE = 0
CLASSIFICATION_TYPE = U
NORAD_CAT_ID   = 21819
ELEMENT_SET_NO = 999
REV_AT_EPOCH   = 49337
BSTAR          = .29029826E-3
MEAN_MOTION_DOT = .1496E-4
MEAN_MOTION_DDOT = 0

CCSDS_OMM_VERS = 2.0
CREATION_DATE  = 
ORIGINATOR     = 

OBJECT_NAME    = SL-8 R/B
OBJECT_ID      = 1992-008B
CENTER_NAME    = EARTH
REF_FRAME      = TEME
TIME_SYSTEM    = UTC
MEAN_ELEMENT_THEORY = SGP/SGP4

EPOCH          = 2026-02-10T05:56:03.067008
MEAN_MOTION    = 13.75969680
ECCENTRICITY   = .00339
INCLINATION    = 82.9261
RA_OF_ASC_NODE = 288.1938
ARG_OF_PERICENTER = 209.6045
MEAN_ANOMALY   = 273.3160

EPHEMERIS_TYPE = 0
CLASSIFICATION_TYPE = U
NORAD_CAT_ID   = 21876
ELEMENT_SET_NO = 999
REV_AT_EPOCH   = 70564
BSTAR          = .17518E-4
MEAN_MOTION_DOT = .32E-6
MEAN_MOTION_DDOT = 0

CCSDS_OMM_VERS = 2.0
CREATION_DATE  = 
ORIGINATOR     = 

OBJECT_NAME    = SL-8 R/B
OBJECT_ID      = 1992-020B
CENTER_NAME    = EARTH
REF_FRAME      = TEME
TIME_SYSTEM    = UTC
MEAN_ELEMENT_THEORY = SGP/SGP4

EPOCH          = 2026-02-10T11:44:56.860800
MEAN_MOTION    = 13.75545599
ECCENTRICITY   = .00291961
INCLINATION    = 82.9333
RA_OF_ASC_NODE = 173.9505
ARG_OF_PERICENTER = 16.3798
MEAN_ANOMALY   = 53.8167

EPHEMERIS_TYPE = 0
CLASSIFICATION_TYPE = U
NORAD_CAT_ID   = 21938
ELEMENT_SET_NO = 999
REV_AT_EPOCH   = 69739
BSTAR          = .12019537E-3
MEAN_MOTION_DOT = .131E-5
MEAN_MOTION_DDOT = 0

CCSDS_OMM_VERS = 2.0
CREATION_DATE  = 
ORIGINATOR     = 

OBJECT_NAME    = USA 81
OBJECT_ID      = 1992-023A
CENTER_NAME    = EARTH
REF_FRAME      = TEME
TIME_SYSTEM    = UTC
MEAN_ELEMENT_THEORY = SGP/SGP4

EPOCH          = 2026-02-10T08:15:50.798016
MEAN_MOTION    = 14.32357940
ECCENTRICITY   = .00026603
INCLINATION    = 85.0120
RA_OF_ASC_NODE = 147.2089
ARG_OF_PERICENTER = 102.1429
MEAN_ANOMALY   = 258.0062

EPHEMERIS_TYPE = 0
CLASSIFICATION_TYPE = U
NORAD_CAT_ID   = 21949
ELEMENT_SET_NO = 999
REV_AT_EPOCH   = 9087
BSTAR          = .78061294E-4
MEAN_MOTION_DOT = .231E-5
MEAN_MOTION_DDOT = 0

CCSDS_OMM_VERS = 2.0
CREATION_DATE  = 
ORIGINATOR     = 

OBJECT_NAME    = COSMOS 2219
OBJECT_ID      = 1992-076A
CENTER_NAME    = EARTH
REF_FRAME      = TEME
TIME_SYSTEM    = UTC
MEAN_ELEMENT_THEORY = SGP/SGP4

EPOCH          = 2026-02-10T11:58:25.658976
MEAN_MOTION    = 14.14076498
ECCENTRICITY   = .00202472
INCLINATION    = 71.0581
RA_OF_ASC_NODE = 74.9130
ARG_OF_PERICENTER = 244.2668
MEAN_ANOMALY   = 115.6365

EPHEMERIS_TYPE = 0
CLASSIFICATION_TYPE = U
NORAD_CAT_ID   = 22219
ELEMENT_SET_NO = 999
REV_AT_EPOCH   = 71453
BSTAR          = .4076982E-5
MEAN_MOTION_DOT = -.39E-6
MEAN_MOTION_DDOT = 0

CCSDS_OMM_VERS = 2.0
CREATION_DATE  = 
ORIGINATOR     = 

OBJECT_NAME    = SL-16 R/B
OBJECT_ID      = 1992-076B
CENTER_NAME    = EARTH
REF_FRAME      = TEME
TIME_SYSTEM    = UTC
MEAN_ELEMENT_THEORY = SGP/SGP4

EPOCH          = 2026-02-10T14:04:22.202112
MEAN_MOTION    = 14.16855982
ECCENTRICITY   = .00114175
INCLINATION    = 70.9978
RA_OF_ASC_NODE = 245.4668
ARG_OF_PERICENTER = 145.0009
MEAN_ANOMALY   = 276.8166

EPHEMERIS_TYPE = 0
CLASSIFICATION_TYPE = U
NORAD_CAT_ID   = 22220
ELEMENT_SET_NO = 999
REV_AT_EPOCH   = 71799
BSTAR          = .1306919E-5
MEAN_MOTION_DOT = -.45E-6
MEAN_MOTION_DDOT = 0

CCSDS_OMM_VERS = 2.0
CREATION_DATE  = 
ORIGINATOR     = 

OBJECT_NAME    = COSMOS 2221
OBJECT_ID      = 1992-080A
CENTER_NAME    = EARTH
REF_FRAME      = TEME
TIME_SYSTEM    = UTC
MEAN_ELEMENT_THEORY = SGP/SGP4

EPOCH          = 2026-02-10T05:11:41.671392
MEAN_MOTION    = 14.96091847
ECCENTRICITY   = .0012872
INCLINATION    = 82.5054
RA_OF_ASC_NODE = 305.3929
ARG_OF_PERICENTER = 287.9945
MEAN_ANOMALY   = 71.9873

EPHEMERIS_TYPE = 0
CLASSIFICATION_TYPE = U
NORAD_CAT_ID   = 22236
ELEMENT_SET_NO = 999
REV_AT_EPOCH   = 77668
BSTAR          = .19909E-3
MEAN_MOTION_DOT = .2266E-4
MEAN_MOTION_DDOT = 0

CCSDS_OMM_VERS = 2.0
CREATION_DATE  = 
ORIGINATOR     = 

OBJECT_NAME    = SL-16 R/B
OBJECT_ID      = 1992-093B
CENTER_NAME    = EARTH
REF_FRAME      = TEME
TIME_SYSTEM    = UTC
MEAN_ELEMENT_THEORY = SGP/SGP4

EPOCH          = 2026-02-10T12:45:19.268064
MEAN_MOTION    = 14.15441096
ECCENTRICITY   = .00051919
INCLINATION    = 71.0200
RA_OF_ASC_NODE = 61.2795
ARG_OF_PERICENTER = 322.4617
MEAN_ANOMALY   = 37.6143

EPHEMERIS_TYPE = 0
CLASSIFICATION_TYPE = U
NORAD_CAT_ID   = 22285
ELEMENT_SET_NO = 999
REV_AT_EPOCH   = 70931
BSTAR          = .35975849E-4
MEAN_MOTION_DOT = .23E-6
MEAN_MOTION_DDOT = 0

CCSDS_OMM_VERS = 2.0
CREATION_DATE  = 
ORIGINATOR     = 

OBJECT_NAME    = COSMOS 2228
OBJECT_ID      = 1992-094A
CENTER_NAME    = EARTH
REF_FRAME      = TEME
TIME_SYSTEM    = UTC
MEAN_ELEMENT_THEORY = SGP/SGP4

EPOCH          = 2026-02-10T14:02:21.707808
MEAN_MOTION    = 14.97064293
ECCENTRICITY   = .00189617
INCLINATION    = 82.5156
RA_OF_ASC_NODE = 263.2659
ARG_OF_PERICENTER = 36.9640
MEAN_ANOMALY   = 323.2884

EPHEMERIS_TYPE = 0
CLASSIFICATION_TYPE = U
NORAD_CAT_ID   = 22286
ELEMENT_SET_NO = 999
REV_AT_EPOCH   = 77200
BSTAR          = .14428564E-3
MEAN_MOTION_DOT = .1695E-4
MEAN_MOTION_DDOT = 0

